[{"OBJECT_NAME":"SJ-12","OBJECT_ID":"2010-027A","EPOCH":"2026-03-10T00:04:35.105376","MEAN_MOTION":15.157144,"ECCENTRICITY":0.00084513,"INCLINATION":97.7698,"RA_OF_ASC_NODE":84.3817,"ARG_OF_PERICENTER":81.2995,"MEAN_ANOMALY":278.9193,"EPHEMERIS_TYPE":0,"CLASSIFICATION_TYPE":"U","NORAD_CAT_ID":36596,"ELEMENT_SET_NO":999,"REV_AT_EPOCH":85983,"BSTAR":0.0003694862,"MEAN_MOTION_DOT":6.976e-5,"MEAN_MOTION_DDOT":0},{"OBJECT_NAME":"STARLINK-30365","OBJECT_ID":"2023-131C","EPOCH":"2026-03-09T22:00:01.999584","MEAN_MOTION":15.11740629,"ECCENTRICITY":0.00010893,"INCLINATION":42.9996,"RA_OF_ASC_NODE":170.4181,"ARG_OF_PERICENTER":243.5279,"MEAN_ANOMALY":327.2322,"EPHEMERIS_TYPE":0,"CLASSIFICATION_TYPE":"U","NORAD_CAT_ID":57734,"ELEMENT_SET_NO":999,"REV_AT_EPOCH":543,"BSTAR":0.080452759,"MEAN_MOTION_DOT":0.01512441,"MEAN_MOTION_DDOT":0}]
